[{"OBJECT_NAME":"TEVEL2-4","OBJECT_ID":"2025-052D","EPOCH":"2026-03-09T16:39:37.129536","MEAN_MOTION":15.30925813,"ECCENTRICITY":0.0004733,"INCLINATION":97.4009,"RA_OF_ASC_NODE":325.1237,"ARG_OF_PERICENTER":95.3468,"MEAN_ANOMALY":264.8313,"EPHEMERIS_TYPE":0,"CLASSIFICATION_TYPE":"U","NORAD_CAT_ID":63213,"ELEMENT_SET_NO":999,"REV_AT_EPOCH":5487,"BSTAR":0.00070362503,"MEAN_MOTION_DOT":0.0002099,"MEAN_MOTION_DDOT":0},{"OBJECT_NAME":"STARLINK-34066","OBJECT_ID":"2025-095V","EPOCH":"2026-03-09T08:17:16.405728","MEAN_MOTION":15.27642769,"ECCENTRICITY":0.00034442,"INCLINATION":43.0035,"RA_OF_ASC_NODE":178.2952,"ARG_OF_PERICENTER":288.9698,"MEAN_ANOMALY":71.078,"EPHEMERIS_TYPE":0,"CLASSIFICATION_TYPE":"U","NORAD_CAT_ID":63909,"ELEMENT_SET_NO":999,"REV_AT_EPOCH":4772,"BSTAR":0.0016071899,"MEAN_MOTION_DOT":0.0004432,"MEAN_MOTION_DDOT":0}]
